OBJECT_NAME,OBJECT_ID,EPOCH,MEAN_MOTION,ECCENTRICITY,INCLINATION,RA_OF_ASC_NODE,ARG_OF_PERICENTER,MEAN_ANOMALY,EPHEMERIS_TYPE,CLASSIFICATION_TYPE,NORAD_CAT_ID,ELEMENT_SET_NO,REV_AT_EPOCH,BSTAR,MEAN_MOTION_DOT,MEAN_MOTION_DDOT
COSMOS 2531 (RODNIK-S 17),2018-097B,2026-06-27T07:11:54.384864,12.42912464,.0017376,82.5181,217.0665,37.3046,322.9237,0,U,43752,999,34356,-.54577403E-4,.2E-7,0
COSMOS 2532 (RODNIK-S 18),2018-097C,2026-06-27T07:52:39.197280,12.42909783,.00187929,82.5125,215.8303,39.1054,321.1380,0,U,43753,999,34353,-.13172213E-3,-.8E-7,0
MINXSS-2,2018-099A,2026-06-27T05:53:54.300768,15.47572916,.0007542,97.4540,254.8283,217.4703,142.6022,0,U,43758,999,41568,.77300237E-3,.39897E-3,0
SIRION PATHFINDER-2,2018-099B,2026-06-27T02:12:06.707520,15.14632172,.00071312,97.4250,226.9136,262.6493,97.3929,0,U,43759,999,41412,.28857391E-3,.5271E-4,0
AISTECHSAT 2,2018-099L,2026-06-27T03:00:09.062496,15.15545016,.00030006,97.4292,225.9415,256.6369,103.4530,0,U,43768,999,41378,.29834553E-3,.5592E-4,0
FOX-1CLIFF (AO-95),2018-099N,2026-06-26T23:22:33.116160,15.26910459,.00071121,97.4387,238.1847,318.8869,41.1833,0,U,43770,999,41471,.46988027E-3,.12361E-3,0
RANGE-A,2018-099R,2026-06-27T02:17:40.126848,15.13468282,.00088786,97.3963,220.3847,319.9407,40.1168,0,U,43773,999,41399,.25213141E-3,.4449E-4,0
SNUSAT-2,2018-099AA,2026-06-27T03:07:07.553856,15.21981519,.0008622,97.4059,231.3609,256.7782,103.2493,0,U,43782,999,41454,.36765457E-3,.8331E-4,0
SNUGLITE,2018-099AC,2026-06-27T02:27:33.247296,15.27385944,.00017416,97.3869,232.2852,220.7923,139.3186,0,U,43784,999,41483,.47394918E-3,.12643E-3,0
ITASAT,2018-099AE,2026-06-27T02:23:41.355744,15.19174435,.00111544,97.4026,229.4136,323.3169,36.7301,0,U,43786,999,41441,.34841843E-3,.7273E-4,0
EAGLET-I,2018-099AJ,2026-06-27T02:32:07.830816,15.13009026,.00097761,97.4229,227.5114,317.1947,42.8522,0,U,43790,999,41383,.23460387E-3,.4083E-4,0
ESEO,2018-099AL,2026-06-27T02:12:06.329088,15.04278215,.00102295,97.3973,215.0564,305.1537,54.8730,0,U,43792,999,41329,.1005131E-3,.1342E-4,0
THEA,2018-099AQ,2026-06-27T04:11:55.056192,15.35342127,.00063977,97.4447,247.9656,239.7045,120.3566,0,U,43796,999,41422,.55649077E-3,.19056E-3,0
ASTROCAST 0.1,2018-099AS,2026-06-27T04:54:16.181280,15.50216672,.0005615,97.4380,257.0171,174.8274,185.3036,0,U,43798,999,41598,.7198563E-3,.40728E-3,0
JY1SAT (JO-97),2018-099AX,2026-06-27T03:25:31.691424,15.33961591,.0005113,97.4134,241.0127,218.5591,141.5287,0,U,43803,999,41515,.56045326E-3,.18364E-3,0
SUOMI-100,2018-099AY,2026-06-27T03:45:59.926176,15.28639929,.00087627,97.4187,238.5136,237.6840,122.3552,0,U,43804,999,41494,.46351419E-3,.12858E-3,0
CENTAURI-1,2018-099BD,2026-06-27T02:29:58.523712,15.16457926,.00124681,97.4220,229.6107,295.6365,64.3580,0,U,43809,999,41400,.29644586E-3,.5713E-4,0
GLOBAL-2,2018-099BG,2026-06-27T02:09:20.492064,15.08729026,.00076255,97.3555,214.1914,114.9061,245.2962,0,U,43812,999,41340,.20625821E-3,.3178E-4,0
SEAHAWK-1,2018-099BQ,2026-06-27T02:58:15.320352,15.22961999,.00065279,97.3959,230.4581,271.8888,88.1601,0,U,43820,999,41404,.37996507E-3,.8863E-4,0
SAUDISAT 5A,2018-102A,2026-06-27T07:33:12.867264,15.28149408,.00113189,97.3069,239.7005,98.4418,261.8105,0,U,43831,999,41722,.22215333E-3,.6033E-4,0
SAUDISAT 5B,2018-102C,2026-06-27T07:57:55.410912,15.28400988,.0012049,97.3178,242.8054,100.2221,260.0378,0,U,43833,999,41734,.21074389E-3,.5765E-4,0
ISAT,2018-111D,2026-06-26T19:26:58.065792,15.67052729,.0003545,97.5871,113.7827,164.9246,195.2120,0,U,43879,999,41267,.98077654E-3,.105419E-2,0
UWE-4,2018-111E,2026-06-27T01:13:08.165280,15.46723335,.00043156,97.5849,106.9000,290.5001,69.5785,0,U,43880,999,41230,.6880485E-3,.34426E-3,0
D-STAR ONE (SPARROW),2018-111F,2026-06-27T02:24:41.692320,15.77564722,.00049816,97.6098,119.9037,132.4577,227.7111,0,U,43881,999,41293,.11154418E-2,.18868E-2,0
JILIN-1 09,2019-005B,2026-06-27T05:57:57.228192,15.20598778,.00035662,97.4745,273.1252,74.5460,285.6169,0,U,43943,999,41067,.22344668E-3,.4828E-4,0
JILIN-1 10,2019-005E,2026-06-27T07:00:21.456864,15.25826278,.00069093,97.4793,277.0964,235.6322,124.4263,0,U,43946,999,41085,.24883808E-3,.6295E-4,0
EGYPTSAT-A (MISRSAT-A),2019-008A,2026-06-27T06:28:02.972640,14.72317436,.00015045,98.0195,242.8953,98.9233,261.2145,0,U,44047,999,39472,.64851259E-4,.361E-5,0
EMISAT,2019-018A,2026-06-27T07:59:00.221280,14.43641770,.0018194,98.4647,237.0776,183.6593,176.4467,0,U,44078,999,38152,.66548701E-4,.182E-5,0
