COSMOS 2531 (RODNIK-S *)
1 43752U 18097B   26178.29993501  .00000002  00000+0 -54577-4 0  9992
2 43752  82.5181 217.0665 0017376  37.3046 322.9237 12.42912464343566
COSMOS 2532 (RODNIK-S *)
1 43753U 18097C   26178.32823145 -.00000008  00000+0 -13172-3 0  9995
2 43753  82.5125 215.8303 0018792  39.1054 321.1380 12.42909783343539
MINXSS-2                
1 43758U 18099A   26178.24576737  .00039897  00000+0  77300-3 0  9994
2 43758  97.4540 254.8283 0007542 217.4703 142.6022 15.47572916415680
SIRION PATHFINDER-2     
1 43759U 18099B   26178.09174430  .00005271  00000+0  28857-3 0  9994
2 43759  97.4250 226.9136 0007131 262.6493  97.3929 15.14632172414123
AISTECHSAT 2            
1 43768U 18099L   26178.12510489  .00005592  00000+0  29835-3 0  9999
2 43768  97.4292 225.9415 0003000 256.6369 103.4530 15.15545016413783
FOX-1CLIFF (AO-95)      
1 43770U 18099N   26177.97399440  .00012361  00000+0  46988-3 0  9996
2 43770  97.4387 238.1847 0007112 318.8869  41.1833 15.26910459414717
RANGE-A                 
1 43773U 18099R   26178.09560332  .00004449  00000+0  25213-3 0  9999
2 43773  97.3963 220.3847 0008878 319.9407  40.1168 15.13468282413999
SNUSAT-2                
1 43782U 18099AA  26178.12994854  .00008331  00000+0  36765-3 0  9991
2 43782  97.4059 231.3609 0008622 256.7782 103.2493 15.21981519414541
SNUGLITE                
1 43784U 18099AC  26178.10246814  .00012643  00000+0  47395-3 0  9999
2 43784  97.3869 232.2852 0001741 220.7923 139.3186 15.27385944414831
ITASAT                  
1 43786U 18099AE  26178.09978421  .00007273  00000+0  34842-3 0  9991
2 43786  97.4026 229.4136 0011154 323.3169  36.7301 15.19174435414418
EAGLET-I                
1 43790U 18099AJ  26178.10564619  .00004083  00000+0  23460-3 0  9998
2 43790  97.4229 227.5114 0009776 317.1947  42.8522 15.13009026413830
ESEO                    
1 43792U 18099AL  26178.09173992  .00001342  00000+0  10051-3 0  9995
2 43792  97.3973 215.0564 0010229 305.1537  54.8730 15.04278215413297
THEA                    
1 43796U 18099AQ  26178.17494278  .00019056  00000+0  55649-3 0  9994
2 43796  97.4447 247.9656 0006397 239.7045 120.3566 15.35342127414229
ASTROCAST 0.1           
1 43798U 18099AS  26178.20435395  .00040728  00000+0  71986-3 0  9997
2 43798  97.4380 257.0171 0005615 174.8274 185.3036 15.50216672415985
JY1SAT (JO-97)          
1 43803U 18099AX  26178.14272791  .00018364  00000+0  56045-3 0  9996
2 43803  97.4134 241.0127 0005113 218.5591 141.5287 15.33961591415153
SUOMI-100               
1 43804U 18099AY  26178.15694359  .00012858  00000+0  46351-3 0  9997
2 43804  97.4187 238.5136 0008762 237.6840 122.3552 15.28639929414944
CENTAURI-1              
1 43809U 18099BD  26178.10414958  .00005713  00000+0  29645-3 0  9991
2 43809  97.4220 229.6107 0012468 295.6365  64.3580 15.16457926414005
GLOBAL-2                
1 43812U 18099BG  26178.08982051  .00003178  00000+0  20626-3 0  9999
2 43812  97.3555 214.1914 0007625 114.9061 245.2962 15.08729026413400
SEAHAWK-1               
1 43820U 18099BQ  26178.12378843  .00008863  00000+0  37997-3 0  9996
2 43820  97.3959 230.4581 0006527 271.8888  88.1601 15.22961999414046
SAUDISAT 5A             
1 43831U 18102A   26178.31473226  .00006033  00000+0  22215-3 0  9999
2 43831  97.3069 239.7005 0011318  98.4418 261.8105 15.28149408417220
SAUDISAT 5B             
1 43833U 18102C   26178.33189133  .00005765  00000+0  21074-3 0  9997
2 43833  97.3178 242.8054 0012049 100.2221 260.0378 15.28400988417347
ISAT                    
1 43879U 18111D   26177.81039428  .00105419  00000+0  98078-3 0  9995
2 43879  97.5871 113.7827 0003545 164.9246 195.2120 15.67052729412672
UWE-4                   
1 43880U 18111E   26178.05078895  .00034426  00000+0  68805-3 0  9999
2 43880  97.5849 106.9000 0004315 290.5001  69.5785 15.46723335412302
D-STAR ONE (SPARROW)    
1 43881U 18111F   26178.10048255  .00188680  00000+0  11154-2 0  9999
2 43881  97.6098 119.9037 0004981 132.4577 227.7111 15.77564722412932
JILIN-1 09              
1 43943U 19005B   26178.24857903  .00004828  00000+0  22345-3 0  9990
2 43943  97.4745 273.1252 0003566  74.5460 285.6169 15.20598778410676
JILIN-1 10              
1 43946U 19005E   26178.29191501  .00006295  00000+0  24884-3 0  9993
2 43946  97.4793 277.0964 0006909 235.6322 124.4263 15.25826278410855
EGYPTSAT-A (MISRSAT-A)  
1 44047U 19008A   26178.26947885  .00000361  00000+0  64851-4 0  9997
2 44047  98.0195 242.8953 0001504  98.9233 261.2145 14.72317436394724
EMISAT                  
1 44078U 19018A   26178.33264145  .00000182  00000+0  66549-4 0  9998
2 44078  98.4647 237.0776 0018194 183.6593 176.4467 14.43641770381524
